AO-51
1 28375U 04025K   06263.72237734  .00000014  00000-0  17468-4 0  6327
2 28375 098.1551 311.3568 0083572 279.2278 079.9472 14.40533281116912
CO-56
1 28941U 06005C   06264.79090485  .00021507  23283-5  26133-3 0  2051
2 28941 098.1720 292.8502 0270513 135.1251 227.2202 15.28004654 32284
NOAA-10
1 16969U 86073A   06264.46464767  .00000036  00000-0  33079-4 0  3547
2 16969 098.7606 276.3056 0011648 228.9006 131.1176 14.27304135 40896
NOAA-11
1 19531U 88089A   06264.25711981 -.00000240  00000-0 -10143-3 0  2931
2 19531 098.8247 351.6262 0012443 076.7610 283.4956 14.14816214928126
NOAA-12
1 21263U 91032A   06264.47730054 -.00000091  00000-0 -19615-4 0  7870
2 21263 098.7382 257.3890 0012828 164.4008 195.7577 14.25507294797969
MET-3/5
1 21655U 91056A   06263.85995811  .00000051  00000-0  10000-3 0  1603
2 21655 082.5577 193.2008 0012869 156.6404 203.5305 13.17007300725958
MET-2/21
1 22782U 93055A   06264.50107925 -.00000008  00000-0 -20249-4 0  6202
2 22782 082.5434 255.0374 0020767 270.6443 089.2337 13.83610213659362
OKEAN-4
1 23317U 94066A   06264.40674532  .00000137  00000-0  13982-4 0   562
2 23317 082.5420 187.2587 0024039 059.1499 301.2076 14.82399557644233
NOAA-14
1 23455U 94089A   06264.34355508  .00000091  00000-0  72194-4 0  2833
2 23455 099.0299 323.5989 0009957 136.9224 223.2715 14.13684654604650
SICH-1
1 23657U 95046A   06263.72316882  .00000211  00000-0  23834-4 0  8583
2 23657 082.5319 328.8060 0025468 051.3596 308.9895 14.81391694596136
NOAA-15
1 25338U 98030A   06264.45688581  .00000212  00000-0  10937-3 0  6696
2 25338 098.5206 263.9001 0011576 092.5825 267.6694 14.24604395434420
RESURS
1 25394U 98043A   06264.75052105 -.00000017  00000-0  11076-4 0  4634
2 25394 098.4824 324.3357 0000627 266.9688 093.1419 14.24111998426141
FENGYUN1
1 25730U 99025A   06263.58448651  .00000135  00000-0  97098-4 0  8287
2 25730 098.6336 252.5563 0013713 227.9495 132.0496 14.11816899379478
OKEAN-0
1 25860U 99039A   06263.62795857  .00000077  00000-0  19020-4 0  8569
2 25860 097.7340 273.5149 0001368 103.7870 256.3495 14.73389788385804
NOAA-16
1 26536U 00055A   06264.13737824 -.00000166  00000-0 -64987-4 0   517
2 26536 099.0778 231.9338 0009897 207.6528 152.4123 14.12368706309127
NOAA-17
1 27453U 02032A   06264.30671388  .00000210  00000-0  11072-3 0   710
2 27453 098.6146 334.6170 0012298 152.8941 207.2907 14.23811412220450
