Satellite: AO-51
Catalog number: 28375
Epoch time:      06263.72237734
Element set:     632
Inclination:      098.1551 deg
RA of node:       311.3568 deg
Eccentricity:    0.0083572
Arg of perigee:   279.2278 deg
Mean anomaly:     079.9472 deg
Mean motion:   14.40533281 rev/day
Decay rate:        1.4e-07 rev/day^2
Epoch rev:           11691
Checksum:              315

Satellite: CO-56
Catalog number: 28941
Epoch time:      06264.79090485
Element set:     205
Inclination:      098.1720 deg
RA of node:       292.8502 deg
Eccentricity:    0.0270513
Arg of perigee:   135.1251 deg
Mean anomaly:     227.2202 deg
Mean motion:   15.28004654 rev/day
Decay rate:     2.1507e-04 rev/day^2
Epoch rev:            3228
Checksum:              283

/EX
SB KEPS @ AMSAT  $ORB06264.W
Orbital Elements  06264.WEATHER

HR AMSAT ORBITAL ELEMENTS FOR WEATHER SATELLITES
FROM WA5QGD FORT WORTH,TX September 21, 2006
Send SUBSCRIBE KEPS/UNSUBSCRIBE KEPS to majordomo at amsat.org only
BID: ORB06264.W
TO ALL RADIO AMATEURS BT

Satellite: NOAA-10
Catalog number: 16969
Epoch time:      06264.46464767
Element set:     354
Inclination:      098.7606 deg
RA of node:       276.3056 deg
Eccentricity:    0.0011648
Arg of perigee:   228.9006 deg
Mean anomaly:     131.1176 deg
Mean motion:   14.27304135 rev/day
Decay rate:        3.6e-07 rev/day^2
Epoch rev:            4089
Checksum:              309

Satellite: NOAA-11
Catalog number: 19531
Epoch time:      06264.25711981
Element set:     293
Inclination:      098.8247 deg
RA of node:       351.6262 deg
Eccentricity:    0.0012443
Arg of perigee:   076.7610 deg
Mean anomaly:     283.4956 deg
Mean motion:   14.14816214 rev/day
Decay rate:      -2.40e-06 rev/day^2
Epoch rev:           92812
Checksum:              299

Satellite: NOAA-12
Catalog number: 21263
Epoch time:      06264.47730054
Element set:     787
Inclination:      098.7382 deg
RA of node:       257.3890 deg
Eccentricity:    0.0012828
Arg of perigee:   164.4008 deg
Mean anomaly:     195.7577 deg
Mean motion:   14.25507294 rev/day
Decay rate:       -9.1e-07 rev/day^2
Epoch rev:           79796
Checksum:              342

Satellite: MET-3/5
Catalog number: 21655
Epoch time:      06263.85995811
Element set:     160
Inclination:      082.5577 deg
RA of node:       193.2008 deg
Eccentricity:    0.0012869
Arg of perigee:   156.6404 deg
Mean anomaly:     203.5305 deg
Mean motion:   13.17007300 rev/day
Decay rate:        5.1e-07 rev/day^2
Epoch rev:           72595
Checksum:              291

Satellite: MET-2/21
Catalog number: 22782
Epoch time:      06264.50107925
Element set:     620
Inclination:      082.5434 deg
RA of node:       255.0374 deg
Eccentricity:    0.0020767
Arg of perigee:   270.6443 deg
Mean anomaly:     089.2337 deg
Mean motion:   13.83610213 rev/day
Decay rate:       -8.0e-08 rev/day^2
Epoch rev:           65936
Checksum:              291

Satellite: OKEAN-4
Catalog number: 23317
Epoch time:      06264.40674532
Element set:      56
Inclination:      082.5420 deg
RA of node:       187.2587 deg
Eccentricity:    0.0024039
Arg of perigee:   059.1499 deg
Mean anomaly:     301.2076 deg
Mean motion:   14.82399557 rev/day
Decay rate:       1.37e-06 rev/day^2
Epoch rev:           64423
Checksum:              306

Satellite: NOAA-14
Catalog number: 23455
Epoch time:      06264.34355508
Element set:     283
Inclination:      099.0299 deg
RA of node:       323.5989 deg
Eccentricity:    0.0009957
Arg of perigee:   136.9224 deg
Mean anomaly:     223.2715 deg
Mean motion:   14.13684654 rev/day
Decay rate:        9.1e-07 rev/day^2
Epoch rev:           60465
Checksum:              328

Satellite: SICH-1
Catalog number: 23657
Epoch time:      06263.72316882
Element set:     858
Inclination:      082.5319 deg
RA of node:       328.8060 deg
Eccentricity:    0.0025468
Arg of perigee:   051.3596 deg
Mean anomaly:     308.9895 deg
Mean motion:   14.81391694 rev/day
Decay rate:       2.11e-06 rev/day^2
Epoch rev:           59613
Checksum:              334

Satellite: NOAA-15
Catalog number: 25338
Epoch time:      06264.45688581
Element set:     669
Inclination:      098.5206 deg
RA of node:       263.9001 deg
Eccentricity:    0.0011576
Arg of perigee:   092.5825 deg
Mean anomaly:     267.6694 deg
Mean motion:   14.24604395 rev/day
Decay rate:       2.12e-06 rev/day^2
Epoch rev:           43442
Checksum:              323

Satellite: RESURS
Catalog number: 25394
Epoch time:      06264.75052105
Element set:     463
Inclination:      098.4824 deg
RA of node:       324.3357 deg
Eccentricity:    0.0000627
Arg of perigee:   266.9688 deg
Mean anomaly:     093.1419 deg
Mean motion:   14.24111998 rev/day
Decay rate:       -1.7e-07 rev/day^2
Epoch rev:           42614
Checksum:              304

Satellite: FENGYUN1
Catalog number: 25730
Epoch time:      06263.58448651
Element set:     828
Inclination:      098.6336 deg
RA of node:       252.5563 deg
Eccentricity:    0.0013713
Arg of perigee:   227.9495 deg
Mean anomaly:     132.0496 deg
Mean motion:   14.11816899 rev/day
Decay rate:       1.35e-06 rev/day^2
Epoch rev:           37947
Checksum:              331

Satellite: OKEAN-0
Catalog number: 25860
Epoch time:      06263.62795857
Element set:     856
Inclination:      097.7340 deg
RA of node:       273.5149 deg
Eccentricity:    0.0001368
Arg of perigee:   103.7870 deg
Mean anomaly:     256.3495 deg
Mean motion:   14.73389788 rev/day
Decay rate:        7.7e-07 rev/day^2
Epoch rev:           38580
Checksum:              352

Satellite: NOAA-16
Catalog number: 26536
Epoch time:      06264.13737824
Element set:      51
Inclination:      099.0778 deg
RA of node:       231.9338 deg
Eccentricity:    0.0009897
Arg of perigee:   207.6528 deg
Mean anomaly:     152.4123 deg
Mean motion:   14.12368706 rev/day
Decay rate:      -1.66e-06 rev/day^2
Epoch rev:           30912
Checksum:              315

Satellite: NOAA-17
Catalog number: 27453
Epoch time:      06264.30671388
Element set:      71
Inclination:      098.6146 deg
RA of node:       334.6170 deg
Eccentricity:    0.0012298
Arg of perigee:   152.8941 deg
Mean anomaly:     207.2907 deg
Mean motion:   14.23811412 rev/day
Decay rate:       2.10e-06 rev/day^2
Epoch rev:           22045
Checksum:              281

